OBJECT_NAME,OBJECT_ID,EPOCH,MEAN_MOTION,ECCENTRICITY,INCLINATION,RA_OF_ASC_NODE,ARG_OF_PERICENTER,MEAN_ANOMALY,EPHEMERIS_TYPE,CLASSIFICATION_TYPE,NORAD_CAT_ID,ELEMENT_SET_NO,REV_AT_EPOCH,BSTAR,MEAN_MOTION_DOT,MEAN_MOTION_DDOT
LEMUR-2-ROUNDTRIPPER,2025-009DG,2026-07-21T03:44:59.307936,15.04286343,.00044086,97.7239,284.7966,52.8285,307.3343,0,U,62711,999,8273,.4096987E-3,.5644E-4,0
LEMUR-2-MYNAMEISJEFF,2025-009DH,2026-07-20T22:55:30.004896,15.04275983,.00043326,97.7287,284.9972,86.1884,273.9837,0,U,62712,999,8270,.4072E-3,.5608E-4,0
LEMUR-2-LEIA-PHILIP,2025-052AN,2026-07-21T03:37:11.653248,14.97395495,.00050545,97.6788,93.5247,107.2779,252.8997,0,U,63246,999,7375,.47868711E-4,.499E-5,0
LEMUR-2-LIA-MARTIN,2025-052AQ,2026-07-21T03:25:38.560224,14.98051983,.000487,97.6847,94.0459,75.2895,284.8867,0,U,63248,999,7376,.19400827E-3,.2236E-4,0
LEMUR-2-DELOITTE-1,2025-052BB,2026-07-21T02:58:53.558400,14.97814493,.00025102,97.6886,94.3577,55.5698,304.5761,0,U,63259,999,7377,.25548979E-3,.2944E-4,0
LEMUR-2-EMERSONROSE,2025-052BD,2026-07-21T03:10:43.414752,14.99322635,.00023654,97.6884,94.9926,45.2798,314.8618,0,U,63261,999,7382,.22730758E-3,.2718E-4,0
LEMUR-2-MARACHE-FRAN,2025-052BE,2026-07-21T03:37:37.390080,15.00339650,.00059086,97.6813,95.3832,228.7343,131.3372,0,U,63262,999,7385,.22929844E-3,.2818E-4,0
LEMUR-2-THEFALCONER,2025-052BG,2026-07-21T03:44:02.432544,14.97581436,.00007838,97.6812,93.9722,214.7460,145.3711,0,U,63264,999,7377,.17170035E-3,.1948E-4,0
LEMUR-2-UNTITLED-SC,2025-061A,2026-07-21T04:50:24.376128,15.13671379,.0019739,97.5662,177.3242,143.1626,217.0966,0,U,63351,999,7273,.13612057E-3,.2392E-4,0
LEMUR-2-ESPERANZA,2025-061B,2026-07-21T05:49:28.054848,15.13777808,.00193876,97.5669,177.4666,142.4352,217.8238,0,U,63352,999,7274,.13075435E-3,.2302E-4,0
LEMUR-2-KREMPEL-BRO2,2025-061C,2026-07-21T04:39:10.368864,15.14205287,.00204736,97.5714,177.9947,135.5460,224.7419,0,U,63353,999,7275,.13908269E-3,.2484E-4,0
LEMUR-2-THERMORAPTOR,2025-061D,2026-07-21T04:10:42.111264,15.14288331,.00202101,97.5721,178.0573,134.6013,225.6872,0,U,63354,999,7275,.13604651E-3,.2434E-4,0
LEMUR-2-NEUROSPICY,2025-061E,2026-07-20T21:05:32.333280,15.14404805,.00179593,97.5648,177.3637,138.3390,221.9213,0,U,63355,999,7271,.12904134E-3,.231E-4,0
LEMUR-2-TILLINFINITY,2025-061F,2026-07-20T21:37:37.248384,15.14989431,.00194898,97.5632,177.6998,127.4100,232.8910,0,U,63356,999,7274,.13843006E-3,.2527E-4,0
LEMUR-2-KREMPEL-BRO1,2025-061G,2026-07-20T21:05:37.353120,15.14796156,.00201001,97.5634,177.5844,128.7862,231.5169,0,U,63357,999,7273,.12807574E-3,.2321E-4,0
LEMUR-2-LANGER2SPACE,2025-061H,2026-07-21T04:14:06.345312,15.14492070,.00179193,97.5639,177.6807,135.8259,224.4408,0,U,63358,999,7276,.13751494E-3,.2473E-4,0
LEMUR-2-BALTO,2025-052BH,2026-07-21T03:14:47.843808,15.00395215,.00049956,97.6918,95.3639,301.8348,58.2389,0,U,63395,999,7385,.2588569E-3,.3193E-4,0
LEMUR-2-KRISH,2025-135AK,2026-07-21T01:04:11.848512,14.96474549,.00011369,97.7761,316.6976,108.7454,251.3890,0,U,64561,999,5898,.27924101E-3,.3112E-4,0
LEMUR-2-HUBBLE-4,2025-135AP,2026-07-21T02:28:42.481344,14.93695378,.00031051,97.7722,315.6187,148.5011,211.6396,0,U,64565,999,5893,.73729687E-4,.723E-5,0
LEMUR-2-SEJONG-2,2025-135BL,2026-07-21T06:20:38.614848,14.96944520,.00043278,97.7710,317.0616,190.6239,169.4892,0,U,64586,999,5904,.32678623E-3,.3697E-4,0
LEMUR-2-HUBBLE-5,2025-135BT,2026-07-20T20:12:42.583392,14.94221604,.00047674,97.7742,316.0356,212.8278,147.2647,0,U,64840,999,5893,.72277989E-4,.718E-5,0
LEMUR-2-KARENDARRELL,2025-135BU,2026-07-20T20:45:08.400384,15.00548023,.00128951,97.7720,318.0329,87.6727,272.5973,0,U,64841,999,5906,.41543134E-3,.5189E-4,0
LEMUR-2-LUCILLE-ROSE,2025-135BV,2026-07-21T02:31:06.336480,15.00533214,.00154773,97.7694,318.3070,171.4432,188.7058,0,U,65403,999,5372,.40912534E-3,.5111E-4,0
LEMUR-2-AFFIE-WAUWIE,2025-248C,2026-07-21T06:02:58.010784,15.28420340,.00093047,45.3907,290.2433,283.2240,76.7611,0,U,66295,999,3980,.6096442E-3,.16937E-3,0
OTTER SDM,2025-276N,2026-07-21T03:41:06.173952,15.20098954,.00047016,97.4195,275.0715,227.0821,133.0021,0,U,66678,999,3557,.20749186E-3,.4414E-4,0
LEMUR-2-STAS-GORBUK,2025-276W,2026-07-21T04:14:13.462944,15.19695406,.00040432,97.4229,275.1450,220.9680,139.1252,0,U,66686,999,3557,.17789899E-3,.373E-4,0
LEMUR-2-TEODOR,2025-276DG,2026-07-21T02:57:02.871360,15.21376204,.00020924,97.4132,275.3717,83.2152,276.9322,0,U,66768,999,3560,.18261146E-3,.4025E-4,0
LEMUR-2-LAILA,2025-276DQ,2026-07-21T03:46:59.465280,15.21603356,.00028274,97.4155,275.5482,85.7271,274.4288,0,U,66776,999,3561,.18771173E-3,.4167E-4,0
LEMUR-2-CELIJO-SB-PK,2025-276DW,2026-07-21T02:53:51.213696,15.00324552,.00066542,97.5182,271.7774,49.8981,310.2825,0,U,66781,999,2771,.3463897E-3,.4289E-4,0
