LEMUR-2-ROUNDTRIPPER    
1 62711U 25009DG  26202.15624199  .00005644  00000+0  40970-3 0  9993
2 62711  97.7239 284.7966 0004408  52.8285 307.3343 15.04286343 82733
LEMUR-2-MYNAMEISJEFF    
1 62712U 25009DH  26201.95520839  .00005608  00000+0  40720-3 0  9990
2 62712  97.7287 284.9972 0004332  86.1884 273.9837 15.04275983 82708
LEMUR-2-LEIA-PHILIP     
1 63246U 25052AN  26202.15082932  .00000499  00000+0  47869-4 0  9996
2 63246  97.6788  93.5247 0005054 107.2779 252.8997 14.97395495 73755
LEMUR-2-LIA-MARTIN      
1 63248U 25052AQ  26202.14280741  .00002236  00000+0  19401-3 0  9996
2 63248  97.6847  94.0459 0004870  75.2895 284.8867 14.98051983 73766
LEMUR-2-DELOITTE-1      
1 63259U 25052BB  26202.12423100  .00002944  00000+0  25549-3 0  9990
2 63259  97.6886  94.3577 0002510  55.5698 304.5761 14.97814493 73772
LEMUR-2-EMERSONROSE     
1 63261U 25052BD  26202.13244693  .00002718  00000+0  22731-3 0  9991
2 63261  97.6884  94.9926 0002365  45.2798 314.8618 14.99322635 73827
LEMUR-2-MARACHE-FRAN    
1 63262U 25052BE  26202.15112720  .00002818  00000+0  22930-3 0  9991
2 63262  97.6813  95.3832 0005908 228.7343 131.3372 15.00339650 73851
LEMUR-2-THEFALCONER     
1 63264U 25052BG  26202.15558371  .00001948  00000+0  17170-3 0  9992
2 63264  97.6812  93.9722 0000783 214.7460 145.3711 14.97581436 73774
LEMUR-2-UNTITLED-SC     
1 63351U 25061A   26202.20167102  .00002392  00000+0  13612-3 0  9994
2 63351  97.5662 177.3242 0019739 143.1626 217.0966 15.13671379 72736
LEMUR-2-ESPERANZA       
1 63352U 25061B   26202.24268582  .00002302  00000+0  13075-3 0  9997
2 63352  97.5669 177.4666 0019387 142.4352 217.8238 15.13777808 72747
LEMUR-2-KREMPEL-BRO2    
1 63353U 25061C   26202.19387001  .00002484  00000+0  13908-3 0  9996
2 63353  97.5714 177.9947 0020473 135.5460 224.7419 15.14205287 72754
LEMUR-2-THERMORAPTOR    
1 63354U 25061D   26202.17409851  .00002434  00000+0  13605-3 0  9992
2 63354  97.5721 178.0573 0020210 134.6013 225.6872 15.14288331 72757
LEMUR-2-NEUROSPICY      
1 63355U 25061E   26201.87884645  .00002310  00000+0  12904-3 0  9991
2 63355  97.5648 177.3637 0017959 138.3390 221.9213 15.14404805 72714
LEMUR-2-TILLINFINITY    
1 63356U 25061F   26201.90112556  .00002527  00000+0  13843-3 0  9994
2 63356  97.5632 177.6998 0019489 127.4100 232.8910 15.14989431 72740
LEMUR-2-KREMPEL-BRO1    
1 63357U 25061G   26201.87890455  .00002321  00000+0  12808-3 0  9994
2 63357  97.5634 177.5844 0020100 128.7862 231.5169 15.14796156 72734
LEMUR-2-LANGER2SPACE    
1 63358U 25061H   26202.17646233  .00002473  00000+0  13751-3 0  9998
2 63358  97.5639 177.6807 0017919 135.8259 224.4408 15.14492070 72761
LEMUR-2-BALTO           
1 63395U 25052BH  26202.13527597  .00003193  00000+0  25886-3 0  9998
2 63395  97.6918  95.3639 0004995 301.8348  58.2389 15.00395215 73856
LEMUR-2-KRISH           
1 64561U 25135AK  26202.04458158  .00003112  00000+0  27924-3 0  9998
2 64561  97.7761 316.6976 0001136 108.7454 251.3890 14.96474549 58980
LEMUR-2-HUBBLE-4        
1 64565U 25135AP  26202.10326946  .00000723  00000+0  73730-4 0  9990
2 64565  97.7722 315.6187 0003105 148.5011 211.6396 14.93695378 58930
LEMUR-2-SEJONG-2        
1 64586U 25135BL  26202.26433582  .00003697  00000+0  32679-3 0  9994
2 64586  97.7710 317.0616 0004327 190.6239 169.4892 14.96944520 59043
LEMUR-2-HUBBLE-5        
1 64840U 25135BT  26201.84215953  .00000718  00000+0  72278-4 0  9991
2 64840  97.7742 316.0356 0004767 212.8278 147.2647 14.94221604 58937
LEMUR-2-KARENDARRELL    
1 64841U 25135BU  26201.86468056  .00005189  00000+0  41543-3 0  9995
2 64841  97.7720 318.0329 0012895  87.6727 272.5973 15.00548023 59068
LEMUR-2-LUCILLE-ROSE    
1 65403U 25135BV  26202.10493445  .00005111  00000+0  40913-3 0  9993
2 65403  97.7694 318.3070 0015477 171.4432 188.7058 15.00533214 53728
LEMUR-2-AFFIE-WAUWIE    
1 66295U 25248C   26202.25206031  .00016937  00000+0  60964-3 0  9993
2 66295  45.3907 290.2433 0009304 283.2240  76.7611 15.28420340 39805
OTTER SDM               
1 66678U 25276N   26202.15354368  .00004414  00000+0  20749-3 0  9999
2 66678  97.4195 275.0715 0004701 227.0821 133.0021 15.20098954 35574
LEMUR-2-STAS-GORBUK     
1 66686U 25276W   26202.17654471  .00003730  00000+0  17790-3 0  9990
2 66686  97.4229 275.1450 0004043 220.9680 139.1252 15.19695406 35578
LEMUR-2-TEODOR          
1 66768U 25276DG  26202.12294990  .00004025  00000+0  18261-3 0  9994
2 66768  97.4132 275.3717 0002092  83.2152 276.9322 15.21376204 35603
LEMUR-2-LAILA           
1 66776U 25276DQ  26202.15763270  .00004167  00000+0  18771-3 0  9991
2 66776  97.4155 275.5482 0002827  85.7271 274.4288 15.21603356 35619
LEMUR-2-CELIJO-SB-PK    
1 66781U 25276DW  26202.12073164  .00004289  00000+0  34639-3 0  9996
2 66781  97.5182 271.7774 0006654  49.8981 310.2825 15.00324552 27712
